COSMOS 2433 [GLONASS-M] 
1 32275U 07052A   26061.86341554 -.00000050  00000+0  00000+0 0  9998
2 32275  65.6357 319.5137 0002225 271.4287  88.6025  2.13103856142795
COSMOS 2432 [GLONASS-M] 
1 32276U 07052B   26062.91914729 -.00000053  00000+0  00000+0 0  9999
2 32276  65.6511 319.6039 0010629 330.1271  64.0556  2.13102981142844
COSMOS 2434 [GLONASS-M] 
1 32393U 07065A   26062.24563601 -.00000008  00000+0  00000+0 0  9998
2 32393  64.3184 195.4861 0003829  70.2306 113.3410  2.13101160141512
COSMOS 2436 [GLONASS-M] 
1 32395U 07065C   26062.00748204 -.00000010  00000+0  00000+0 0  9991
2 32395  64.3269 195.5651 0017539   7.5258 126.0860  2.13099970141467
COSMOS 2456 [GLONASS-M] 
1 36111U 09070A   26062.42573193  .00000019  00000+0  00000+0 0  9996
2 36111  64.9483  74.5788 0006300 305.6154 173.6630  2.13103384126178
COSMOS 2457 [GLONASS-M] 
1 36112U 09070B   26062.57085889  .00000018  00000+0  00000+0 0  9992
2 36112  64.9335  74.4199 0002182 196.2080 162.7915  2.13100826126179
COSMOS 2460 [GLONASS-M] 
1 36402U 10007C   26062.81058858 -.00000050  00000+0  00000+0 0  9996
2 36402  65.4802 318.0346 0001771  13.0565 170.6086  2.13106025124480
COSMOS 2476 [GLONASS-M] 
1 37867U 11064A   26061.08238354  .00000034  00000+0  00000+0 0  9996
2 37867  65.2077  76.4865 0025205 241.1677 195.8820  2.13103599111489
COSMOS 2477 [GLONASS-M] 
1 37868U 11064B   26062.25639741  .00000024  00000+0  00000+0 0  9991
2 37868  65.2151  76.5253 0022241 242.8811 195.4983  2.13102695111505
COSMOS 2475 [GLONASS-M] 
1 37869U 11064C   26062.32646874  .00000024  00000+0  00000+0 0  9995
2 37869  65.2220  76.5435 0028097 254.3538 193.3549  2.13101445111512
COSMOS 2485 [GLONASS-M] 
1 39155U 13019A   26062.79603716  .00000021  00000+0  00000+0 0  9993
2 39155  65.3593  77.1407 0025506 236.8284 122.9730  2.13102935100037
COSMOS 2492 [GLONASS-M] 
1 39620U 14012A   26060.87784062 -.00000046  00000+0  00000+0 0  9993
2 39620  65.3591 317.5854 0013264 325.8526  34.1188  2.13103112 92955
COSMOS 2500 [GLONASS-M] 
1 40001U 14032A   26062.45675065 -.00000048  00000+0  00000+0 0  9990
2 40001  65.2935 317.2872 0005202 202.8793 157.1573  2.13105742 91203
COSMOS 2501 [GLONASS-K] 
1 40315U 14075A   26060.84023701 -.00000015  00000+0  00000+0 0  9994
2 40315  63.6170 194.0851 0020735 205.7160 154.1408  2.13101099 87569
COSMOS 2514 [GLONASS-M] 
1 41330U 16008A   26062.70171478 -.00000048  00000+0  00000+0 0  9998
2 41330  65.0830 316.6293 0009149 209.5647 150.4441  2.13102533 78375
COSMOS 2522 [GLONASS-M] 
1 42939U 17055A   26060.66254924 -.00000014  00000+0  00000+0 0  9991
2 42939  64.0792 195.5407 0007123 226.6423 133.2575  2.13101627 65680
COSMOS 2527 [GLONASS-M] 
1 43508U 18053A   26061.09309953  .00000036  00000+0  00000+0 0  9997
2 43508  65.5168  77.4788 0009594 245.0851 114.8694  2.13101983 59999
