[{"OBJECT_NAME":"COSMOS 2433 (720)","OBJECT_ID":"2007-052A","EPOCH":"2026-03-02T20:43:19.102656","MEAN_MOTION":2.13103856,"ECCENTRICITY":0.00022251,"INCLINATION":65.6357,"RA_OF_ASC_NODE":319.5137,"ARG_OF_PERICENTER":271.4287,"MEAN_ANOMALY":88.6025,"EPHEMERIS_TYPE":0,"CLASSIFICATION_TYPE":"U","NORAD_CAT_ID":32275,"ELEMENT_SET_NO":999,"REV_AT_EPOCH":14279,"BSTAR":0,"MEAN_MOTION_DOT":-5.0e-7,"MEAN_MOTION_DDOT":0},{"OBJECT_NAME":"COSMOS 2432 (719)","OBJECT_ID":"2007-052B","EPOCH":"2026-03-03T22:03:34.325856","MEAN_MOTION":2.13102981,"ECCENTRICITY":0.00106297,"INCLINATION":65.6511,"RA_OF_ASC_NODE":319.6039,"ARG_OF_PERICENTER":330.1271,"MEAN_ANOMALY":64.0556,"EPHEMERIS_TYPE":0,"CLASSIFICATION_TYPE":"U","NORAD_CAT_ID":32276,"ELEMENT_SET_NO":999,"REV_AT_EPOCH":14284,"BSTAR":0,"MEAN_MOTION_DOT":-5.3e-7,"MEAN_MOTION_DDOT":0},{"OBJECT_NAME":"COSMOS 2434 (721)","OBJECT_ID":"2007-065A","EPOCH":"2026-03-03T05:53:42.951264","MEAN_MOTION":2.1310116,"ECCENTRICITY":0.00038293,"INCLINATION":64.3184,"RA_OF_ASC_NODE":195.4861,"ARG_OF_PERICENTER":70.2306,"MEAN_ANOMALY":113.341,"EPHEMERIS_TYPE":0,"CLASSIFICATION_TYPE":"U","NORAD_CAT_ID":32393,"ELEMENT_SET_NO":999,"REV_AT_EPOCH":14151,"BSTAR":0,"MEAN_MOTION_DOT":-8.0e-8,"MEAN_MOTION_DDOT":0},{"OBJECT_NAME":"COSMOS 2436 (723)","OBJECT_ID":"2007-065C","EPOCH":"2026-03-03T00:10:46.448256","MEAN_MOTION":2.1309997,"ECCENTRICITY":0.0017539,"INCLINATION":64.3269,"RA_OF_ASC_NODE":195.5651,"ARG_OF_PERICENTER":7.5258,"MEAN_ANOMALY":126.086,"EPHEMERIS_TYPE":0,"CLASSIFICATION_TYPE":"U","NORAD_CAT_ID":32395,"ELEMENT_SET_NO":999,"REV_AT_EPOCH":14146,"BSTAR":0,"MEAN_MOTION_DOT":-1.0e-7,"MEAN_MOTION_DDOT":0},{"OBJECT_NAME":"COSMOS 2456 (730)","OBJECT_ID":"2009-070A","EPOCH":"2026-03-03T10:13:03.238752","MEAN_MOTION":2.13103384,"ECCENTRICITY":0.00063005,"INCLINATION":64.9483,"RA_OF_ASC_NODE":74.5788,"ARG_OF_PERICENTER":305.6154,"MEAN_ANOMALY":173.663,"EPHEMERIS_TYPE":0,"CLASSIFICATION_TYPE":"U","NORAD_CAT_ID":36111,"ELEMENT_SET_NO":999,"REV_AT_EPOCH":12617,"BSTAR":0,"MEAN_MOTION_DOT":1.9e-7,"MEAN_MOTION_DDOT":0},{"OBJECT_NAME":"COSMOS 2457 (733)","OBJECT_ID":"2009-070B","EPOCH":"2026-03-03T13:42:02.208096","MEAN_MOTION":2.13100826,"ECCENTRICITY":0.00021827,"INCLINATION":64.9335,"RA_OF_ASC_NODE":74.4199,"ARG_OF_PERICENTER":196.208,"MEAN_ANOMALY":162.7915,"EPHEMERIS_TYPE":0,"CLASSIFICATION_TYPE":"U","NORAD_CAT_ID":36112,"ELEMENT_SET_NO":999,"REV_AT_EPOCH":12617,"BSTAR":0,"MEAN_MOTION_DOT":1.8e-7,"MEAN_MOTION_DDOT":0},{"OBJECT_NAME":"COSMOS 2460 (732)","OBJECT_ID":"2010-007C","EPOCH":"2026-03-03T19:27:14.853312","MEAN_MOTION":2.13106025,"ECCENTRICITY":0.0001771,"INCLINATION":65.4802,"RA_OF_ASC_NODE":318.0346,"ARG_OF_PERICENTER":13.0565,"MEAN_ANOMALY":170.6086,"EPHEMERIS_TYPE":0,"CLASSIFICATION_TYPE":"U","NORAD_CAT_ID":36402,"ELEMENT_SET_NO":999,"REV_AT_EPOCH":12448,"BSTAR":0,"MEAN_MOTION_DOT":-5.0e-7,"MEAN_MOTION_DDOT":0},{"OBJECT_NAME":"COSMOS 2476 (744)","OBJECT_ID":"2011-064A","EPOCH":"2026-03-02T01:58:37.937856","MEAN_MOTION":2.13103599,"ECCENTRICITY":0.00252054,"INCLINATION":65.2077,"RA_OF_ASC_NODE":76.4865,"ARG_OF_PERICENTER":241.1677,"MEAN_ANOMALY":195.882,"EPHEMERIS_TYPE":0,"CLASSIFICATION_TYPE":"U","NORAD_CAT_ID":37867,"ELEMENT_SET_NO":999,"REV_AT_EPOCH":11148,"BSTAR":0,"MEAN_MOTION_DOT":3.4e-7,"MEAN_MOTION_DDOT":0},{"OBJECT_NAME":"COSMOS 2477 (745)","OBJECT_ID":"2011-064B","EPOCH":"2026-03-03T06:09:12.736224","MEAN_MOTION":2.13102695,"ECCENTRICITY":0.00222416,"INCLINATION":65.2151,"RA_OF_ASC_NODE":76.5253,"ARG_OF_PERICENTER":242.8811,"MEAN_ANOMALY":195.4983,"EPHEMERIS_TYPE":0,"CLASSIFICATION_TYPE":"U","NORAD_CAT_ID":37868,"ELEMENT_SET_NO":999,"REV_AT_EPOCH":11150,"BSTAR":0,"MEAN_MOTION_DOT":2.4e-7,"MEAN_MOTION_DDOT":0},{"OBJECT_NAME":"COSMOS 2475 (743)","OBJECT_ID":"2011-064C","EPOCH":"2026-03-03T07:50:06.899136","MEAN_MOTION":2.13101445,"ECCENTRICITY":0.00280971,"INCLINATION":65.222,"RA_OF_ASC_NODE":76.5435,"ARG_OF_PERICENTER":254.3538,"MEAN_ANOMALY":193.3549,"EPHEMERIS_TYPE":0,"CLASSIFICATION_TYPE":"U","NORAD_CAT_ID":37869,"ELEMENT_SET_NO":999,"REV_AT_EPOCH":11151,"BSTAR":0,"MEAN_MOTION_DOT":2.4e-7,"MEAN_MOTION_DDOT":0},{"OBJECT_NAME":"COSMOS 2485 (747)","OBJECT_ID":"2013-019A","EPOCH":"2026-03-03T19:06:17.610624","MEAN_MOTION":2.13102935,"ECCENTRICITY":0.00255066,"INCLINATION":65.3593,"RA_OF_ASC_NODE":77.1407,"ARG_OF_PERICENTER":236.8284,"MEAN_ANOMALY":122.973,"EPHEMERIS_TYPE":0,"CLASSIFICATION_TYPE":"U","NORAD_CAT_ID":39155,"ELEMENT_SET_NO":999,"REV_AT_EPOCH":10003,"BSTAR":0,"MEAN_MOTION_DOT":2.1e-7,"MEAN_MOTION_DDOT":0},{"OBJECT_NAME":"COSMOS 2492 (754)","OBJECT_ID":"2014-012A","EPOCH":"2026-03-01T21:04:05.429568","MEAN_MOTION":2.13103112,"ECCENTRICITY":0.0013264,"INCLINATION":65.3591,"RA_OF_ASC_NODE":317.5854,"ARG_OF_PERICENTER":325.8526,"MEAN_ANOMALY":34.1188,"EPHEMERIS_TYPE":0,"CLASSIFICATION_TYPE":"U","NORAD_CAT_ID":39620,"ELEMENT_SET_NO":999,"REV_AT_EPOCH":9295,"BSTAR":0,"MEAN_MOTION_DOT":-4.6e-7,"MEAN_MOTION_DDOT":0},{"OBJECT_NAME":"COSMOS 2500 (755)","OBJECT_ID":"2014-032A","EPOCH":"2026-03-03T10:57:43.256160","MEAN_MOTION":2.13105742,"ECCENTRICITY":0.00052021,"INCLINATION":65.2935,"RA_OF_ASC_NODE":317.2872,"ARG_OF_PERICENTER":202.8793,"MEAN_ANOMALY":157.1573,"EPHEMERIS_TYPE":0,"CLASSIFICATION_TYPE":"U","NORAD_CAT_ID":40001,"ELEMENT_SET_NO":999,"REV_AT_EPOCH":9120,"BSTAR":0,"MEAN_MOTION_DOT":-4.8e-7,"MEAN_MOTION_DDOT":0},{"OBJECT_NAME":"COSMOS 2501 (702K)","OBJECT_ID":"2014-075A","EPOCH":"2026-03-01T20:09:56.477664","MEAN_MOTION":2.13101099,"ECCENTRICITY":0.00207353,"INCLINATION":63.617,"RA_OF_ASC_NODE":194.0851,"ARG_OF_PERICENTER":205.716,"MEAN_ANOMALY":154.1408,"EPHEMERIS_TYPE":0,"CLASSIFICATION_TYPE":"U","NORAD_CAT_ID":40315,"ELEMENT_SET_NO":999,"REV_AT_EPOCH":8756,"BSTAR":0,"MEAN_MOTION_DOT":-1.5e-7,"MEAN_MOTION_DDOT":0},{"OBJECT_NAME":"COSMOS 2514 (751)","OBJECT_ID":"2016-008A","EPOCH":"2026-03-03T16:50:28.156992","MEAN_MOTION":2.13102533,"ECCENTRICITY":0.00091497,"INCLINATION":65.083,"RA_OF_ASC_NODE":316.6293,"ARG_OF_PERICENTER":209.5647,"MEAN_ANOMALY":150.4441,"EPHEMERIS_TYPE":0,"CLASSIFICATION_TYPE":"U","NORAD_CAT_ID":41330,"ELEMENT_SET_NO":999,"REV_AT_EPOCH":7837,"BSTAR":0,"MEAN_MOTION_DOT":-4.8e-7,"MEAN_MOTION_DDOT":0},{"OBJECT_NAME":"COSMOS 2522 (752)","OBJECT_ID":"2017-055A","EPOCH":"2026-03-01T15:54:04.254336","MEAN_MOTION":2.13101627,"ECCENTRICITY":0.00071239,"INCLINATION":64.0792,"RA_OF_ASC_NODE":195.5407,"ARG_OF_PERICENTER":226.6423,"MEAN_ANOMALY":133.2575,"EPHEMERIS_TYPE":0,"CLASSIFICATION_TYPE":"U","NORAD_CAT_ID":42939,"ELEMENT_SET_NO":999,"REV_AT_EPOCH":6568,"BSTAR":0,"MEAN_MOTION_DOT":-1.4e-7,"MEAN_MOTION_DDOT":0},{"OBJECT_NAME":"COSMOS 2527 (756)","OBJECT_ID":"2018-053A","EPOCH":"2026-03-02T02:14:03.799392","MEAN_MOTION":2.13101983,"ECCENTRICITY":0.0009594,"INCLINATION":65.5168,"RA_OF_ASC_NODE":77.4788,"ARG_OF_PERICENTER":245.0851,"MEAN_ANOMALY":114.8694,"EPHEMERIS_TYPE":0,"CLASSIFICATION_TYPE":"U","NORAD_CAT_ID":43508,"ELEMENT_SET_NO":999,"REV_AT_EPOCH":5999,"BSTAR":0,"MEAN_MOTION_DOT":3.6e-7,"MEAN_MOTION_DDOT":0}]
